{
  "type": "FeatureCollection",
  "features": [
    {
      "type": "Feature",
      "properties": {
        "norad_id": 34540,
        "name": "IRIDIUM 33 DEB",
        "group": "iridium-33-debris",
        "lat": -16.44382040863535,
        "lon": 131.63575624250447,
        "alt_km": 639.4256786608721,
        "timestamp": "2025-12-06T07:31:40.620979+00:00",
        "meta_object_name": "IRIDIUM 33 DEB",
        "meta_object_id": "1997-051JH",
        "meta_epoch": "2025-12-04T09:44:19.454208",
        "meta_mean_motion": 14.75040189,
        "meta_eccentricity": 0.0014993,
        "meta_inclination": 86.3094,
        "meta_ra_of_asc_node": 311.4162,
        "meta_arg_of_pericenter": 189.6254,
        "meta_mean_anomaly": 321.8404,
        "meta_ephemeris_type": 0,
        "meta_classification_type": "U",
        "meta_norad_cat_id": 34540,
        "meta_element_set_no": 999,
        "meta_rev_at_epoch": 88898,
        "meta_bstar": 0.004011,
        "meta_mean_motion_dot": 0.00027148,
        "meta_mean_motion_ddot": 0,
        "tle_line1": "1 34540U 97051JH  25338.40578072  .00027148  00000+0  40110-2 0  9991",
        "tle_line2": "2 34540  86.3094 311.4162 0014993 189.6254 321.8404 14.75040189888989"
      },
      "geometry": {
        "type": "Point",
        "coordinates": [
          131.63575624250447,
          -16.44382040863535
        ]
      }
    },
    {
      "type": "Feature",
      "properties": {
        "norad_id": 34648,
        "name": "IRIDIUM 33 DEB",
        "group": "iridium-33-debris",
        "lat": 19.280860895685468,
        "lon": -74.19468496556257,
        "alt_km": 788.7375255741417,
        "timestamp": "2025-12-06T07:31:40.620990+00:00",
        "meta_object_name": "IRIDIUM 33 DEB",
        "meta_object_id": "1997-051JZ",
        "meta_epoch": "2025-12-01T03:11:38.418720",
        "meta_mean_motion": 14.1087899,
        "meta_eccentricity": 0.01868529,
        "meta_inclination": 86.3903,
        "meta_ra_of_asc_node": 286.6295,
        "meta_arg_of_pericenter": 334.6513,
        "meta_mean_anomaly": 24.5588,
        "meta_ephemeris_type": 0,
        "meta_classification_type": "U",
        "meta_norad_cat_id": 34648,
        "meta_element_set_no": 999,
        "meta_rev_at_epoch": 84797,
        "meta_bstar": 0.0079356223,
        "meta_mean_motion_dot": 0.00016788,
        "meta_mean_motion_ddot": 0,
        "tle_line1": "1 34648U 97051JZ  25335.13308355  .00016788  00000+0  79356-2 0  9994",
        "tle_line2": "2 34648  86.3903 286.6295 0186852 334.6513  24.5588 14.10878990847973"
      },
      "geometry": {
        "type": "Point",
        "coordinates": [
          -74.19468496556257,
          19.280860895685468
        ]
      }
    },
    {
      "type": "Feature",
      "properties": {
        "norad_id": 34651,
        "name": "IRIDIUM 33 DEB",
        "group": "iridium-33-debris",
        "lat": 77.0539457558099,
        "lon": -53.120946482580386,
        "alt_km": 851.9080826488034,
        "timestamp": "2025-12-06T07:31:40.621000+00:00",
        "meta_object_name": "IRIDIUM 33 DEB",
        "meta_object_id": "1997-051KC",
        "meta_epoch": "2025-12-04T11:14:22.766784",
        "meta_mean_motion": 14.25597734,
        "meta_eccentricity": 0.0141881,
        "meta_inclination": 86.2823,
        "meta_ra_of_asc_node": 144.094,
        "meta_arg_of_pericenter": 230.2415,
        "meta_mean_anomaly": 128.6209,
        "meta_ephemeris_type": 0,
        "meta_classification_type": "U",
        "meta_norad_cat_id": 34651,
        "meta_element_set_no": 999,
        "meta_rev_at_epoch": 85778,
        "meta_bstar": 0.0077267,
        "meta_mean_motion_dot": 0.00020383,
        "meta_mean_motion_ddot": 0,
        "tle_line1": "1 34651U 97051KC  25338.46831906  .00020383  00000+0  77267-2 0  9995",
        "tle_line2": "2 34651  86.2823 144.0940 0141881 230.2415 128.6209 14.25597734857782"
      },
      "geometry": {
        "type": "Point",
        "coordinates": [
          -53.120946482580386,
          77.0539457558099
        ]
      }
    },
    {
      "type": "Feature",
      "properties": {
        "norad_id": 34652,
        "name": "IRIDIUM 33 DEB",
        "group": "iridium-33-debris",
        "lat": 36.89417390728846,
        "lon": -14.375779157592612,
        "alt_km": 679.535079556641,
        "timestamp": "2025-12-06T07:31:40.621010+00:00",
        "meta_object_name": "IRIDIUM 33 DEB",
        "meta_object_id": "1997-051KD",
        "meta_epoch": "2025-12-05T06:47:28.910400",
        "meta_mean_motion": 14.6194715,
        "meta_eccentricity": 0.00267279,
        "meta_inclination": 86.3306,
        "meta_ra_of_asc_node": 343.3218,
        "meta_arg_of_pericenter": 325.0807,
        "meta_mean_anomaly": 50.6373,
        "meta_ephemeris_type": 0,
        "meta_classification_type": "U",
        "meta_norad_cat_id": 34652,
        "meta_element_set_no": 999,
        "meta_rev_at_epoch": 88375,
        "meta_bstar": 0.0018811698,
        "meta_mean_motion_dot": 9.492e-05,
        "meta_mean_motion_ddot": 0,
        "tle_line1": "1 34652U 97051KD  25339.28297350  .00009492  00000+0  18812-2 0  9995",
        "tle_line2": "2 34652  86.3306 343.3218 0026727 325.0807  50.6373 14.61947150883754"
      },
      "geometry": {
        "type": "Point",
        "coordinates": [
          -14.375779157592612,
          36.89417390728846
        ]
      }
    },
    {
      "type": "Feature",
      "properties": {
        "norad_id": 34690,
        "name": "IRIDIUM 33 DEB",
        "group": "iridium-33-debris",
        "lat": 59.573719590636415,
        "lon": 45.97424038529617,
        "alt_km": 695.436072686628,
        "timestamp": "2025-12-06T07:31:40.621020+00:00",
        "meta_object_name": "IRIDIUM 33 DEB",
        "meta_object_id": "1997-051KM",
        "meta_epoch": "2025-12-05T05:07:04.785312",
        "meta_mean_motion": 14.55051508,
        "meta_eccentricity": 0.00116101,
        "meta_inclination": 86.3789,
        "meta_ra_of_asc_node": 40.2624,
        "meta_arg_of_pericenter": 51.712,
        "meta_mean_anomaly": 7.605,
        "meta_ephemeris_type": 0,
        "meta_classification_type": "U",
        "meta_norad_cat_id": 34690,
        "meta_element_set_no": 999,
        "meta_rev_at_epoch": 87985,
        "meta_bstar": 0.00091494528,
        "meta_mean_motion_dot": 3.967e-05,
        "meta_mean_motion_ddot": 0,
        "tle_line1": "1 34690U 97051KM  25339.21324983  .00003967  00000+0  91495-3 0  9993",
        "tle_line2": "2 34690  86.3789  40.2624 0011610  51.7120   7.6050 14.55051508879857"
      },
      "geometry": {
        "type": "Point",
        "coordinates": [
          45.97424038529617,
          59.573719590636415
        ]
      }
    },
    {
      "type": "Feature",
      "properties": {
        "norad_id": 34693,
        "name": "IRIDIUM 33 DEB",
        "group": "iridium-33-debris",
        "lat": -71.43796735895782,
        "lon": 138.1044929107603,
        "alt_km": 506.4558581506526,
        "timestamp": "2025-12-06T07:31:40.621030+00:00",
        "meta_object_name": "IRIDIUM 33 DEB",
        "meta_object_id": "1997-051KQ",
        "meta_epoch": "2025-12-05T05:31:04.272384",
        "meta_mean_motion": 15.2536237,
        "meta_eccentricity": 0.00157553,
        "meta_inclination": 86.3057,
        "meta_ra_of_asc_node": 307.5471,
        "meta_arg_of_pericenter": 63.8696,
        "meta_mean_anomaly": 359.9929,
        "meta_ephemeris_type": 0,
        "meta_classification_type": "U",
        "meta_norad_cat_id": 34693,
        "meta_element_set_no": 999,
        "meta_rev_at_epoch": 88800,
        "meta_bstar": 0.0073217826,
        "meta_mean_motion_dot": 0.00189655,
        "meta_mean_motion_ddot": 0,
        "tle_line1": "1 34693U 97051KQ  25339.22991056  .00189655  00000+0  73218-2 0  9999",
        "tle_line2": "2 34693  86.3057 307.5471 0015755  63.8696 359.9929 15.25362370888008"
      },
      "geometry": {
        "type": "Point",
        "coordinates": [
          138.1044929107603,
          -71.43796735895782
        ]
      }
    },
    {
      "type": "Feature",
      "properties": {
        "norad_id": 34696,
        "name": "IRIDIUM 33 DEB",
        "group": "iridium-33-debris",
        "lat": -26.568188877050588,
        "lon": 28.599290725824048,
        "alt_km": 726.5816698754988,
        "timestamp": "2025-12-06T07:31:40.621041+00:00",
        "meta_object_name": "IRIDIUM 33 DEB",
        "meta_object_id": "1997-051KT",
        "meta_epoch": "2025-12-05T04:01:30.427392",
        "meta_mean_motion": 14.64460399,
        "meta_eccentricity": 0.00745546,
        "meta_inclination": 86.1851,
        "meta_ra_of_asc_node": 31.0439,
        "meta_arg_of_pericenter": 193.3089,
        "meta_mean_anomaly": 221.7713,
        "meta_ephemeris_type": 0,
        "meta_classification_type": "U",
        "meta_norad_cat_id": 34696,
        "meta_element_set_no": 999,
        "meta_rev_at_epoch": 86562,
        "meta_bstar": 0.011279279,
        "meta_mean_motion_dot": 0.0006268,
        "meta_mean_motion_ddot": 0,
        "tle_line1": "1 34696U 97051KT  25339.16771328  .00062680  00000+0  11279-1 0  9999",
        "tle_line2": "2 34696  86.1851  31.0439 0074554 193.3089 221.7713 14.64460399865623"
      },
      "geometry": {
        "type": "Point",
        "coordinates": [
          28.599290725824048,
          -26.568188877050588
        ]
      }
    }
  ]
}